{"type":"Feature","properties":{"iso":"POL","name":"Польща","source":"Natural Earth ne_10m_admin_0_countries_ukr","bufferKm":3},"geometry":{"type":"Polygon","coordinates":[[[14.2436,53.724],[14.221,53.7091],[14.216,53.6604],[14.2196,53.645],[14.2524,53.5921],[14.2525,53.5236],[14.2661,53.4939],[14.3161,53.4352],[14.3261,53.3866],[14.3531,53.3117],[14.359,53.2738],[14.3878,53.248],[14.3503,53.217],[14.3381,53.1988],[14.3332,53.173],[14.344,53.1347],[14.3055,53.0639],[14.2291,53.0235],[14.166,53.0033],[14.1044,52.972],[14.0997,52.9537],[14.1199,52.896],[14.1146,52.8816],[14.0831,52.8616],[14.0793,52.8501],[14.1078,52.8154],[14.1394,52.8026],[14.1885,52.7959],[14.2276,52.7708],[14.3516,52.7183],[14.401,52.6667],[14.4737,52.6256],[14.5237,52.6135],[14.5899,52.5695],[14.5656,52.5232],[14.5699,52.5052],[14.5833,52.4956],[14.5575,52.4674],[14.4987,52.4319],[14.5014,52.3798],[14.5441,52.3064],[14.5416,52.2842],[14.5512,52.2733],[14.5864,52.2518],[14.6683,52.2292],[14.6486,52.1996],[14.6609,52.1736],[14.6429,52.1249],[14.656,52.0961],[14.7005,52.0711],[14.6844,52.0359],[14.6576,52.0012],[14.6461,51.9218],[14.62,51.8962],[14.5564,51.8538],[14.5393,51.8227],[14.5423,51.8015],[14.5657,51.7736],[14.5919,51.759],[14.5959,51.736],[14.6153,51.6997],[14.6912,51.6494],[14.7002,51.6109],[14.6707,51.5742],[14.6626,51.5548],[14.6675,51.5251],[14.6787,51.5116],[14.7183,51.4903],[14.8727,51.4505],[14.9078,51.4345],[14.9038,51.4206],[14.9213,51.3236],[14.9753,51.2671],[14.9729,51.2357],[14.949,51.1938],[14.9377,51.1321],[14.9176,51.1076],[14.9137,51.0712],[14.8235,50.9314],[14.7739,50.891],[14.7677,50.8771],[14.7707,50.8484],[14.7796,50.8397],[14.8089,50.8315],[14.8722,50.8371],[14.9789,50.8322],[15.0087,50.838],[15.0243,50.855],[15.0252,50.9059],[15.0406,50.9308],[15.0395,50.9599],[15.0239,50.9819],[15.0456,50.9789],[15.0748,50.9613],[15.1024,50.9543],[15.1395,50.9591],[15.1695,50.951],[15.2237,50.9483],[15.2106,50.9105],[15.2248,50.8737],[15.2515,50.8407],[15.3054,50.8153],[15.3114,50.7718],[15.3283,50.755],[15.3432,50.7497],[15.3884,50.7482],[15.4233,50.7722],[15.4363,50.7728],[15.6224,50.7315],[15.644,50.7143],[15.6714,50.7057],[15.7614,50.7155],[15.8114,50.6615],[15.8339,50.6497],[15.8835,50.6473],[15.9396,50.6591],[15.9544,50.6365],[15.9403,50.6226],[15.9384,50.6023],[15.9481,50.5873],[15.9741,50.5771],[16.044,50.5846],[16.1019,50.6187],[16.171,50.5973],[16.2151,50.6038],[16.2487,50.6337],[16.3051,50.6226],[16.3682,50.5801],[16.356,50.5707],[16.3466,50.5295],[16.3306,50.5192],[16.2746,50.5184],[16.2585,50.5123],[16.2401,50.4936],[16.1808,50.4701],[16.1576,50.4481],[16.1498,50.4323],[16.15,50.4156],[16.1594,50.3977],[16.1781,50.383],[16.1995,50.3789],[16.2122,50.3585],[16.2359,50.3434],[16.2716,50.3381],[16.3084,50.3449],[16.3117,50.3285],[16.3372,50.3022],[16.4075,50.2786],[16.4679,50.2149],[16.4985,50.1931],[16.5161,50.1491],[16.5332,50.1259],[16.5901,50.0872],[16.6412,50.0691],[16.7216,50.0713],[16.7899,50.118],[16.8359,50.1612],[16.8914,50.1654],[16.9319,50.1877],[16.9752,50.19],[17.0087,50.183],[17.0464,50.1983],[17.0568,50.221],[17.0548,50.2342],[17.0415,50.2522],[17.0379,50.2765],[17.0191,50.3031],[16.9637,50.3335],[16.9334,50.3929],[16.9786,50.3889],[17.0653,50.3734],[17.1119,50.353],[17.1521,50.3502],[17.1624,50.3323],[17.1883,50.3136],[17.2344,50.2962],[17.2858,50.2911],[17.303,50.249],[17.3435,50.2273],[17.3806,50.2324],[17.4007,50.2181],[17.4345,50.2135],[17.4635,50.2203],[17.4907,50.2397],[17.6171,50.2321],[17.6563,50.2412],[17.6774,50.2529],[17.6837,50.2306],[17.7001,50.2169],[17.6399,50.1948],[17.5988,50.1938],[17.5592,50.182],[17.5404,50.1566],[17.5428,50.141],[17.6154,50.0818],[17.6458,50.0749],[17.6779,50.0794],[17.6829,50.0663],[17.7064,50.0464],[17.7405,49.9994],[17.8097,49.9545],[17.8307,49.9472],[17.888,49.9429],[17.9243,49.95],[17.962,49.9683],[18.0546,49.9802],[18.0772,49.9657],[18.1476,49.9555],[18.1915,49.9337],[18.2225,49.9271],[18.246,49.8974],[18.2823,49.8816],[18.3151,49.8832],[18.3641,49.9045],[18.4615,49.873],[18.5216,49.8728],[18.5326,49.847],[18.5245,49.8313],[18.5276,49.7954],[18.568,49.734],[18.5811,49.701],[18.6134,49.6782],[18.6624,49.6715],[18.7062,49.6458],[18.7538,49.6441],[18.7934,49.5435],[18.7929,49.5036],[18.8132,49.4866],[18.9117,49.4785],[18.9192,49.4329],[18.9173,49.3922],[18.9409,49.3661],[19.0104,49.3612],[19.0629,49.3777],[19.1034,49.3645],[19.1247,49.3645],[19.188,49.3772],[19.2155,49.3966],[19.2239,49.4199],[19.2437,49.4303],[19.2518,49.4456],[19.2495,49.4634],[19.2666,49.49],[19.3515,49.5029],[19.4425,49.5615],[19.4712,49.5456],[19.5192,49.4424],[19.5486,49.4239],[19.5877,49.4152],[19.5879,49.393],[19.5979,49.3827],[19.68,49.3623],[19.7396,49.3635],[19.7474,49.3141],[19.7391,49.3002],[19.7397,49.2866],[19.753,49.2721],[19.7166,49.2331],[19.7074,49.2001],[19.7273,49.1784],[19.7465,49.1689],[19.7828,49.1613],[19.8463,49.1606],[19.8839,49.1725],[19.93,49.1974],[19.9992,49.1596],[20.0323,49.149],[20.0621,49.1473],[20.1043,49.1681],[20.1202,49.2011],[20.1258,49.2321],[20.1585,49.2791],[20.1911,49.2876],[20.2197,49.3078],[20.3047,49.3152],[20.3286,49.3345],[20.3398,49.3604],[20.4237,49.356],[20.4543,49.3666],[20.5122,49.3482],[20.558,49.3454],[20.596,49.3567],[20.6185,49.3722],[20.6689,49.3745],[20.7697,49.3019],[20.8328,49.2944],[20.8741,49.2719],[20.9113,49.2638],[20.9696,49.2755],[21.0363,49.3269],[21.078,49.3304],[21.1083,49.3436],[21.1217,49.3703],[21.1022,49.3961],[21.1108,49.3972],[21.1491,49.3761],[21.1794,49.3717],[21.2225,49.3809],[21.269,49.4186],[21.3191,49.4018],[21.4283,49.3828],[21.4982,49.3854],[21.5982,49.3991],[21.6324,49.3817],[21.6739,49.3754],[21.7161,49.3362],[21.747,49.3229],[21.7806,49.3265],[21.815,49.3475],[21.8561,49.3242],[21.9044,49.3084],[21.9321,49.2914],[21.9545,49.2678],[21.977,49.1973],[22.0163,49.1757],[22.1661,49.1449],[22.1733,49.1302],[22.2039,49.1142],[22.2508,49.1048],[22.3163,49.1035],[22.378,49.0672],[22.425,49.0587],[22.4946,49.0567],[22.5376,49.0453],[22.5661,49.0519],[22.595,49.032],[22.638,49.0164],[22.739,49.0163],[22.7672,48.9967],[22.8543,48.967],[22.883,48.9741],[22.904,48.9983],[22.9081,49.0106],[22.9032,49.0227],[22.8847,49.0463],[22.8946,49.0849],[22.8738,49.1115],[22.8074,49.1397],[22.7413,49.1854],[22.7728,49.2517],[22.7789,49.278],[22.7605,49.3878],[22.7182,49.4297],[22.7062,49.4869],[22.6853,49.5277],[22.7022,49.5539],[22.7751,49.6176],[22.798,49.6557],[22.8263,49.6615],[22.8563,49.6784],[22.923,49.7546],[22.9627,49.772],[22.9879,49.8123],[23.0277,49.8393],[23.1345,49.9404],[23.2038,49.9828],[23.2413,50.0174],[23.4651,50.1736],[23.5912,50.2365],[23.6753,50.2944],[23.6985,50.3178],[23.7172,50.3524],[23.7544,50.3625],[23.9292,50.3639],[23.9976,50.3799],[24.0203,50.3942],[24.0422,50.4272],[24.05,50.4463],[24.0507,50.4757],[24.106,50.4959],[24.1492,50.5352],[24.1293,50.5989],[24.1509,50.6281],[24.1184,50.6911],[24.1227,50.7185],[24.1057,50.735],[24.0619,50.7459],[24.0685,50.767],[24.0578,50.7849],[24.0022,50.7977],[24.0009,50.803],[24.0098,50.8104],[24.0449,50.8022],[24.1577,50.8181],[24.1822,50.8454],[24.1846,50.863],[24.151,50.8925],[24.0722,50.92],[24.0129,50.9547],[23.9909,50.9983],[23.9589,51.0205],[23.944,51.0729],[23.905,51.1175],[23.916,51.1286],[23.912,51.1496],[23.8468,51.1976],[23.7941,51.2195],[23.7796,51.2306],[23.7265,51.3036],[23.7109,51.315],[23.6732,51.3259],[23.6904,51.3429],[23.7226,51.3583],[23.7269,51.3678],[23.7229,51.3832],[23.738,51.3948],[23.7408,51.4049],[23.7293,51.427],[23.6949,51.4596],[23.7059,51.4776],[23.6982,51.4958],[23.6519,51.5142],[23.6368,51.5471],[23.6168,51.5564],[23.5856,51.5997],[23.5861,51.6487],[23.6023,51.6648],[23.6034,51.6757],[23.5982,51.6848],[23.6017,51.7011],[23.5918,51.7183],[23.595,51.731],[23.6059,51.7459],[23.6483,51.7674],[23.6705,51.8021],[23.6717,51.8144],[23.6449,51.8424],[23.664,51.8704],[23.6658,51.9248],[23.6865,51.9616],[23.7151,51.9814],[23.7202,51.9928],[23.6804,52.0901],[23.621,52.1376],[23.578,52.1485],[23.5426,52.1478],[23.5327,52.1601],[23.5297,52.1896],[23.5069,52.2059],[23.4354,52.2108],[23.4159,52.2236],[23.3373,52.2384],[23.3169,52.2482],[23.2406,52.2549],[23.2381,52.2754],[23.2202,52.2963],[23.2663,52.3492],[23.3077,52.3805],[23.4258,52.4915],[23.506,52.5323],[23.5866,52.5609],[23.7613,52.5927],[23.894,52.6478],[23.9433,52.6829],[23.9524,52.6947],[23.967,52.7437],[23.9567,52.895],[23.9461,52.9211],[23.9609,52.9432],[23.9623,52.9596],[23.9503,53.0241],[23.9045,53.0714],[23.9052,53.0815],[23.9335,53.1183],[23.9386,53.1504],[23.923,53.1765],[23.8861,53.1989],[23.8609,53.2373],[23.8407,53.2554],[23.7853,53.375],[23.718,53.4657],[23.635,53.6181],[23.6125,53.684],[23.6104,53.743],[23.5748,53.7895],[23.5651,53.8436],[23.5325,53.9136],[23.5338,53.9593],[23.5057,53.9833],[23.5364,54.0086],[23.5421,54.0448],[23.5182,54.12],[23.4917,54.1651],[23.4561,54.1925],[23.4235,54.2005],[23.3948,54.2302],[23.346,54.2568],[23.2559,54.2785],[23.1373,54.3277],[23.0829,54.3264],[23.0873,54.3454],[23.0739,54.3614],[23.0596,54.3695],[23.0234,54.3745],[23.0063,54.3943],[22.9733,54.408],[22.9306,54.408],[22.8652,54.4259],[22.8179,54.4253],[22.7808,54.4137],[22.7446,54.3803],[22.6926,54.3702],[19.6888,54.4635],[19.6073,54.4837],[19.559,54.471],[19.5036,54.4373],[19.3634,54.4037],[19.0055,54.3725],[18.951,54.3855],[18.8949,54.3768],[18.7462,54.4049],[18.7197,54.4271],[18.6216,54.4552],[18.614,54.4894],[18.6169,54.5477],[18.5819,54.6137],[18.5653,54.6319],[18.5688,54.6514],[18.5501,54.6685],[18.5209,54.6731],[18.5169,54.6988],[18.5023,54.7173],[18.4615,54.7466],[18.5335,54.7256],[18.6259,54.6889],[18.677,54.6783],[18.7472,54.607],[18.7919,54.5756],[18.8226,54.5713],[18.8699,54.5851],[18.8818,54.6042],[18.8778,54.6263],[18.8676,54.6419],[18.7758,54.7132],[18.3332,54.8636],[18.1481,54.8652],[17.881,54.851],[17.7036,54.8166],[17.3176,54.7734],[17.0159,54.6914],[16.9132,54.6291],[16.7663,54.6014],[16.5449,54.5801],[16.4766,54.5553],[16.4336,54.5312],[16.4122,54.5093],[16.2873,54.4178],[16.2497,54.3804],[16.1826,54.3365],[16.1009,54.306],[16.0105,54.2882],[15.8406,54.2746],[15.6501,54.2239],[15.2762,54.1649],[14.9952,54.0954],[14.7632,54.0593],[14.4986,53.9898],[14.391,53.9474],[14.2783,53.9484],[14.2291,53.963],[14.1924,53.9634],[14.177,53.9572],[14.1565,53.9311],[14.1331,53.917],[14.1318,53.898],[14.167,53.86],[14.1967,53.85],[14.2492,53.8084],[14.312,53.7915],[14.3506,53.7925],[14.3668,53.7965],[14.3878,53.8143],[14.4245,53.8197],[14.4557,53.8416],[14.5302,53.837],[14.5242,53.8193],[14.5545,53.7931],[14.5326,53.7781],[14.5082,53.7347],[14.5022,53.6973],[14.4365,53.7075],[14.3805,53.7315],[14.3659,53.7511],[14.31,53.7744],[14.2623,53.7684],[14.2469,53.7526],[14.2436,53.724]]]}}