{"type":"Feature","properties":{"iso":"UKR","name":"Україна","source":"Natural Earth ne_10m_admin_0_countries_ukr","bufferKm":3},"geometry":{"type":"Polygon","coordinates":[[[22.2222,48.3893],[22.2164,48.3734],[22.2192,48.347],[22.2281,48.3382],[22.2562,48.3305],[22.2591,48.3051],[22.2699,48.2848],[22.3283,48.2242],[22.3602,48.2114],[22.3976,48.216],[22.4378,48.2099],[22.4644,48.2129],[22.5205,48.1636],[22.5637,48.0895],[22.5888,48.0725],[22.6932,48.0748],[22.738,48.0851],[22.7773,48.0691],[22.8101,48.0465],[22.8201,48.0283],[22.8103,48.0035],[22.794,47.9871],[22.7958,47.9676],[22.8154,47.9459],[22.8636,47.9215],[22.9206,47.9287],[22.9531,47.9489],[22.9625,47.9654],[23.0106,47.9564],[23.0454,47.9636],[23.0988,47.9949],[23.146,48.0702],[23.2207,48.0515],[23.3386,47.9703],[23.3892,47.9651],[23.4632,47.9444],[23.498,47.9475],[23.5348,47.9743],[23.5607,47.9779],[23.7049,47.9584],[23.7715,47.9602],[23.8129,47.935],[23.825,47.9165],[23.8389,47.9096],[23.892,47.9095],[23.9948,47.9347],[24.0717,47.9154],[24.1138,47.8902],[24.2294,47.8701],[24.3081,47.8931],[24.3619,47.8958],[24.4201,47.9254],[24.4862,47.9162],[24.5374,47.9168],[24.5854,47.8997],[24.6128,47.8826],[24.6224,47.8474],[24.6487,47.8225],[24.6914,47.8031],[24.7782,47.7776],[24.8441,47.7041],[24.8882,47.6837],[25.0244,47.698],[25.1079,47.7236],[25.1563,47.7564],[25.249,47.8597],[25.2764,47.8726],[25.7568,47.9078],[25.9134,47.9401],[25.9616,47.9381],[26.0355,47.9509],[26.1261,47.9515],[26.19,47.9687],[26.2167,47.9888],[26.2398,48.0236],[26.286,48.0548],[26.3071,48.0819],[26.337,48.1505],[26.3378,48.1825],[26.4037,48.1994],[26.4537,48.2014],[26.6047,48.225],[26.6469,48.2402],[26.6658,48.2755],[26.6913,48.2863],[26.7377,48.2616],[26.7905,48.2624],[26.8253,48.2882],[26.8306,48.3077],[26.8251,48.3459],[26.8557,48.36],[26.9357,48.3248],[27.0357,48.3313],[27.0676,48.346],[27.073,48.359],[27.1613,48.3366],[27.2063,48.3337],[27.2652,48.3498],[27.3325,48.4024],[27.3443,48.4065],[27.3888,48.3863],[27.4219,48.3875],[27.4466,48.3966],[27.5246,48.4454],[27.5689,48.4488],[27.589,48.4336],[27.6274,48.4243],[27.7429,48.425],[27.7643,48.4183],[27.8328,48.3821],[27.9006,48.3186],[27.9523,48.3038],[28.0511,48.2931],[28.0564,48.2858],[28.0383,48.2425],[28.054,48.2235],[28.0793,48.2121],[28.1137,48.2098],[28.1508,48.2167],[28.1751,48.1904],[28.2258,48.1818],[28.2607,48.1883],[28.3086,48.2104],[28.3287,48.212],[28.3258,48.203],[28.2836,48.1714],[28.2753,48.1469],[28.2803,48.1246],[28.2984,48.109],[28.3224,48.1004],[28.3572,48.1032],[28.3816,48.1132],[28.4183,48.064],[28.4689,48.0389],[28.4933,48.0386],[28.5217,48.0487],[28.5517,48.1286],[28.65,48.1045],[28.7557,48.0989],[28.7677,48.0935],[28.7993,48.0095],[28.8902,47.9318],[28.935,47.9099],[28.9885,47.8999],[29.0385,47.9082],[29.0874,47.9484],[29.1015,47.9529],[29.1167,47.9332],[29.1348,47.8817],[29.1478,47.8697],[29.1809,47.8566],[29.1487,47.827],[29.1377,47.7895],[29.1493,47.7707],[29.1886,47.7542],[29.1571,47.7207],[29.1523,47.6531],[29.144,47.6226],[29.0985,47.5758],[29.0795,47.5419],[29.0784,47.5276],[29.0914,47.4874],[29.118,47.4411],[29.1286,47.4268],[29.1577,47.4085],[29.1919,47.4037],[29.2149,47.4133],[29.2495,47.3935],[29.2654,47.3658],[29.2807,47.3549],[29.3217,47.3419],[29.3333,47.2945],[29.3543,47.2729],[29.3771,47.2604],[29.4216,47.2518],[29.4537,47.2564],[29.4867,47.274],[29.5082,47.3125],[29.5247,47.3072],[29.5396,47.2797],[29.5402,47.2659],[29.5112,47.2494],[29.5045,47.2373],[29.501,47.209],[29.5105,47.1605],[29.5074,47.1472],[29.4625,47.1414],[29.4434,47.1262],[29.4382,47.1118],[29.4459,47.0926],[29.4917,47.0411],[29.5325,47.0343],[29.5631,47.0513],[29.5333,47.0154],[29.5204,46.9604],[29.5239,46.9329],[29.5434,46.9133],[29.5871,46.9075],[29.6347,46.885],[29.6743,46.8815],[29.7021,46.8532],[29.7308,46.8363],[29.7797,46.828],[29.8271,46.8284],[29.8401,46.821],[29.8557,46.7934],[29.8912,46.78],[29.9122,46.7366],[29.9056,46.6674],[29.892,46.62],[29.909,46.5815],[29.8678,46.5697],[29.8598,46.5505],[29.8629,46.5283],[29.8856,46.5018],[29.9297,46.4856],[29.9447,46.4714],[29.9756,46.4652],[29.9804,46.4482],[30.059,46.3989],[29.9102,46.4],[29.8833,46.3947],[29.8457,46.3764],[29.8415,46.3998],[29.8127,46.4355],[29.7387,46.4922],[29.7114,46.4981],[29.6973,46.4955],[29.6778,46.4812],[29.6747,46.4498],[29.6361,46.4466],[29.6159,46.4319],[29.6099,46.4227],[29.6107,46.3896],[29.5915,46.4149],[29.5676,46.4331],[29.5176,46.4454],[29.5267,46.4743],[29.5141,46.4963],[29.5027,46.5045],[29.464,46.5113],[29.4177,46.5002],[29.3696,46.4604],[29.3469,46.4889],[29.3192,46.4976],[29.2852,46.4945],[29.2506,46.4564],[29.2467,46.4199],[29.246,46.5027],[29.2386,46.5295],[29.2152,46.5547],[29.1844,46.565],[29.1434,46.5615],[28.9984,46.5119],[28.9238,46.4771],[28.8924,46.4473],[28.8806,46.4087],[28.8887,46.364],[28.906,46.3168],[28.8945,46.2581],[28.9194,46.227],[28.9752,46.1848],[28.9492,46.148],[28.9173,46.1229],[28.9019,46.0978],[28.9024,46.0629],[28.9194,46.0189],[28.7477,45.9872],[28.7059,45.9658],[28.6904,45.9395],[28.6897,45.9228],[28.7075,45.8689],[28.7049,45.8525],[28.6444,45.8324],[28.6311,45.8132],[28.6329,45.7934],[28.556,45.7847],[28.5275,45.7571],[28.5232,45.7363],[28.4759,45.712],[28.4384,45.6684],[28.4377,45.6489],[28.4768,45.6212],[28.4844,45.5909],[28.4602,45.5631],[28.4656,45.5294],[28.4226,45.5306],[28.3449,45.5445],[28.2597,45.5474],[28.1941,45.5149],[28.1657,45.4786],[28.1622,45.4553],[28.1831,45.4332],[28.2044,45.4239],[28.2295,45.4243],[28.2456,45.4152],[28.2454,45.3921],[28.275,45.3381],[28.3094,45.3003],[28.386,45.2717],[28.4802,45.2536],[28.5686,45.2218],[28.7016,45.2006],[28.7797,45.2041],[28.8204,45.2173],[28.8387,45.2351],[28.838,45.2546],[28.8124,45.2707],[28.8279,45.2911],[28.8656,45.2807],[28.9104,45.2559],[28.9432,45.2538],[28.9789,45.2653],[28.9922,45.2807],[28.997,45.2989],[29.0354,45.3068],[29.0878,45.3364],[29.1433,45.35],[29.1627,45.3614],[29.1883,45.3638],[29.2374,45.3965],[29.3,45.3986],[29.3307,45.4131],[29.422,45.4039],[29.5495,45.3714],[29.6171,45.331],[29.6294,45.3061],[29.6334,45.2759],[29.6228,45.2523],[29.6266,45.2305],[29.6209,45.2186],[29.6281,45.2],[29.6665,45.1872],[29.7277,45.1999],[29.766,45.229],[29.7672,45.2519],[29.793,45.3098],[29.7923,45.3651],[29.7826,45.4033],[29.7943,45.4291],[29.7931,45.4484],[29.7765,45.4811],[29.7506,45.4994],[29.7238,45.502],[29.703,45.4928],[29.6819,45.5028],[29.744,45.5663],[29.8304,45.5927],[29.931,45.6448],[30.1575,45.7969],[30.2324,45.8369],[30.2925,45.8794],[30.4005,45.9801],[30.5212,46.0611],[30.5581,46.121],[30.5795,46.1322],[30.6884,46.2475],[30.7196,46.2913],[30.7248,46.3222],[30.7625,46.3424],[30.8107,46.3906],[30.8209,46.4224],[30.8373,46.4481],[30.7958,46.5116],[30.8168,46.5317],[30.8775,46.5298],[30.9406,46.5584],[30.9701,46.5575],[31.0076,46.5756],[31.1658,46.602],[31.24,46.5915],[31.2673,46.581],[31.349,46.5754],[31.4534,46.6165],[31.4777,46.6042],[31.4691,46.586],[31.4964,46.5453],[31.6305,46.4561],[31.6499,46.4204],[31.671,46.4051],[31.7016,46.405],[31.7146,46.411],[31.7257,46.4307],[31.725,46.4651],[31.7351,46.4735],[31.9044,46.4292],[31.9838,46.4259],[32.0025,46.4084],[31.953,46.3765],[31.8932,46.3687],[31.8124,46.3748],[31.7761,46.3637],[31.7471,46.3463],[31.7289,46.3228],[31.7344,46.2967],[31.7636,46.2702],[31.8051,46.2554],[31.633,46.2845],[31.6041,46.2963],[31.5888,46.3097],[31.5598,46.3754],[31.5366,46.3935],[31.4889,46.3981],[31.468,46.3831],[31.466,46.3543],[31.477,46.3207],[31.4886,46.2992],[31.5228,46.2624],[31.5663,46.2376],[31.7231,46.1956],[32.0891,46.141],[32.1582,46.123],[32.1872,46.1266],[32.1981,46.1338],[32.2047,46.1538],[32.1929,46.1684],[32.2065,46.1666],[32.2326,46.1109],[32.2917,46.0908],[32.4925,46.0502],[32.5497,46.0538],[32.584,46.07],[32.5809,46.0563],[32.5865,46.0456],[32.6132,46.0334],[33.0337,45.9855],[33.0585,45.9884],[33.0946,46.0172],[33.0896,46.0403],[33.0678,46.0598],[33.0159,46.0633],[32.9887,46.0794],[32.9512,46.0786],[32.9185,46.07],[32.8834,46.0824],[32.7818,46.0737],[32.6574,46.0856],[32.7209,46.0935],[32.7696,46.1084],[32.832,46.0959],[32.9197,46.0886],[33.0248,46.1011],[33.0386,46.1047],[33.0638,46.125],[33.1139,46.1087],[33.1769,46.1239],[33.1898,46.1075],[33.204,46.1023],[33.2544,46.1048],[33.2561,46.0818],[33.2893,46.0648],[33.3181,46.0608],[33.3459,46.0751],[33.3909,46.0371],[33.4108,46.0279],[33.5136,46.0194],[33.5498,46.0327],[33.5547,46.0421],[33.5495,46.0598],[33.5747,46.063],[33.59,46.073],[33.603,46.02],[33.5924,45.9945],[33.5981,45.9756],[33.5822,45.9573],[33.5815,45.9468],[33.5966,45.9292],[33.6224,45.9183],[33.6577,45.9237],[33.6529,45.9019],[33.6213,45.9088],[33.5875,45.9032],[33.5231,45.8686],[33.4822,45.8815],[33.4521,45.875],[33.3812,45.8446],[33.3475,45.8179],[33.2522,45.7799],[33.221,45.7857],[33.1899,45.8072],[33.1572,45.8101],[33.1259,45.7907],[33.1207,45.7712],[33.1273,45.7543],[32.9152,45.6849],[32.8465,45.6524],[32.81,45.6269],[32.787,45.5919],[32.751,45.5912],[32.6894,45.556],[32.6202,45.5431],[32.5018,45.4796],[32.4589,45.4446],[32.4441,45.4033],[32.4767,45.3317],[32.4939,45.3171],[32.5793,45.2946],[32.6631,45.2932],[32.6967,45.3027],[32.7433,45.3353],[32.8902,45.3277],[32.9226,45.3185],[33.0496,45.2533],[33.0656,45.2344],[33.0978,45.2171],[33.1473,45.177],[33.211,45.1599],[33.2405,45.1327],[33.2698,45.1301],[33.3648,45.1594],[33.391,45.162],[33.4482,45.1262],[33.511,45.0974],[33.5276,45.0818],[33.5484,45.0115],[33.5685,44.9799],[33.5816,44.9287],[33.5787,44.8946],[33.5731,44.8817],[33.5371,44.8715],[33.5156,44.853],[33.4936,44.8071],[33.4809,44.7949],[33.4783,44.7839],[33.51,44.6997],[33.481,44.6613],[33.478,44.637],[33.4266,44.6315],[33.3899,44.6154],[33.3435,44.6069],[33.3333,44.5865],[33.3376,44.5657],[33.3578,44.5425],[33.4941,44.4694],[33.5202,44.4636],[33.565,44.4691],[33.5877,44.4481],[33.5988,44.4211],[33.6293,44.4007],[33.7318,44.3698],[33.8067,44.3677],[33.8456,44.3744],[33.901,44.3587],[33.9429,44.3543],[34.1241,44.403],[34.1743,44.4309],[34.2036,44.4684],[34.2376,44.4735],[34.2667,44.4865],[34.2964,44.5186],[34.3343,44.5178],[34.3555,44.5247],[34.3765,44.5489],[34.4146,44.6197],[34.4464,44.6593],[34.4839,44.6978],[34.5225,44.7202],[34.6287,44.7406],[34.7606,44.7927],[34.8199,44.7853],[34.8646,44.7947],[34.897,44.7916],[34.9255,44.7966],[34.9547,44.8144],[34.9817,44.8127],[35.0175,44.7759],[35.0747,44.7672],[35.1029,44.7718],[35.1406,44.8106],[35.182,44.8807],[35.2403,44.8942],[35.2674,44.9138],[35.2805,44.9328],[35.3209,44.9349],[35.3571,44.9174],[35.3721,44.9166],[35.3977,44.9271],[35.4048,44.9474],[35.399,44.9745],[35.4383,44.976],[35.4708,44.9949],[35.4708,45.021],[35.44,45.039],[35.4443,45.0518],[35.5187,45.0878],[35.5875,45.0929],[35.6891,45.0705],[35.7552,45.0392],[35.78,45.0176],[35.7986,44.9819],[35.8431,44.9657],[35.9192,44.9743],[36.0078,44.973],[36.0367,44.9916],[36.0564,45.0166],[36.0836,45.0127],[36.1278,44.9951],[36.2339,44.9813],[36.2677,44.9897],[36.2884,45.0192],[36.381,45.0235],[36.4532,45.0421],[36.4799,45.0571],[36.4914,45.074],[36.4925,45.0978],[36.4503,45.1407],[36.4472,45.1518],[36.4625,45.2432],[36.4734,45.2614],[36.501,45.2653],[36.5242,45.2792],[36.5355,45.2996],[36.5248,45.3223],[36.5757,45.3079],[36.6006,45.3074],[36.641,45.3146],[36.6653,45.3286],[36.6764,45.348],[36.6686,45.3804],[36.6497,45.418],[36.6282,45.4385],[36.5895,45.454],[36.5384,45.4435],[36.5109,45.4659],[36.4779,45.4722],[36.407,45.4647],[36.3674,45.4809],[36.3359,45.4829],[36.3108,45.4992],[36.2763,45.503],[36.243,45.4885],[36.1377,45.489],[36.1048,45.4824],[36.0353,45.4431],[36.0171,45.4078],[36.0004,45.3924],[35.9884,45.3906],[35.8872,45.4297],[35.898,45.464],[35.8893,45.4848],[35.8609,45.4963],[35.8245,45.4972],[35.7845,45.4783],[35.7676,45.4579],[35.7545,45.4206],[35.718,45.3977],[35.7091,45.3749],[35.6908,45.3611],[35.5142,45.3228],[35.4944,45.324],[35.3601,45.3904],[35.0778,45.6837],[34.9937,45.8003],[34.9413,45.898],[34.9114,45.9347],[34.8766,46.0529],[34.8629,46.0817],[34.8523,46.1735],[34.865,46.1864],[34.9158,46.2094],[35.0402,46.2256],[35.0958,46.2482],[35.1379,46.2801],[35.1986,46.3442],[35.2227,46.3616],[35.2418,46.3308],[35.2679,46.3154],[35.171,46.2028],[35.0191,46.1624],[35.0095,46.1538],[35.0063,46.14],[34.956,46.1052],[34.9436,46.0741],[34.9573,46.0571],[35.0022,46.0467],[35.1745,46.1028],[35.2134,46.1272],[35.2413,46.1543],[35.2961,46.2271],[35.4111,46.3516],[35.4728,46.3867],[35.5178,46.4278],[35.6553,46.4787],[35.7938,46.5791],[35.9116,46.6256],[36.0628,46.6428],[36.1286,46.636],[36.1817,46.6419],[36.2026,46.6241],[36.204,46.6104],[36.2167,46.5927],[36.2422,46.584],[36.2921,46.5821],[36.3128,46.5945],[36.3222,46.6275],[36.3352,46.6431],[36.4212,46.701],[36.5031,46.7186],[36.5351,46.7319],[36.6107,46.7359],[36.6363,46.7511],[36.6941,46.7484],[36.7264,46.7401],[36.763,46.7128],[36.7506,46.6766],[36.716,46.6687],[36.7075,46.6599],[36.7045,46.6422],[36.7185,46.6216],[36.759,46.6114],[36.7855,46.6128],[36.8292,46.6421],[36.8509,46.6756],[36.8661,46.7211],[36.8856,46.7443],[36.9012,46.7793],[36.9604,46.8162],[37.004,46.8289],[37.0424,46.8498],[37.1768,46.884],[37.2286,46.9094],[37.2694,46.8991],[37.2763,46.8931],[37.2754,46.8675],[37.297,46.8509],[37.3132,46.8486],[37.3516,46.8579],[37.3842,46.8834],[37.4119,46.92],[37.5137,47.0188],[37.5689,47.0586],[37.5844,47.0625],[37.7118,47.0472],[37.7667,47.0499],[37.8647,47.0738],[37.9439,47.0647],[37.968,47.0674],[38.0294,47.0547],[38.0679,47.0671],[38.0862,47.058],[38.0685,47.0272],[38.0803,47.0072],[38.1098,46.9994],[38.1596,47.0134],[38.2531,47.0926],[38.2563,47.1026],[38.2404,47.1369],[38.2369,47.1617],[38.2417,47.1834],[38.2521,47.1959],[38.3186,47.2271],[38.3377,47.2535],[38.3399,47.2816],[38.3186,47.307],[38.2787,47.3187],[38.2354,47.3177],[38.2684,47.3496],[38.2974,47.3896],[38.3035,47.4225],[38.3004,47.4897],[38.3296,47.551],[38.3488,47.5724],[38.3679,47.5813],[38.5786,47.602],[38.6136,47.6138],[38.6763,47.6566],[38.717,47.6489],[38.7632,47.6583],[38.7849,47.6896],[38.8091,47.772],[38.8308,47.8057],[38.8557,47.826],[38.8846,47.8341],[39.0259,47.8303],[39.0702,47.8099],[39.1165,47.8017],[39.3179,47.8189],[39.3932,47.7957],[39.456,47.8031],[39.5173,47.7964],[39.5726,47.8038],[39.7087,47.7851],[39.7623,47.797],[39.7958,47.822],[39.8152,47.8534],[39.8226,47.882],[39.8175,47.9115],[39.8326,47.9381],[39.8362,47.9645],[39.8152,48.0064],[39.8484,48.0086],[39.8783,48.0234],[39.8845,48.0431],[39.8698,48.0803],[39.8798,48.1084],[39.9273,48.1677],[40.0142,48.2239],[40.0273,48.2422],[40.0336,48.2709],[40.0142,48.3033],[39.988,48.3163],[39.9434,48.3187],[39.8944,48.3069],[39.8842,48.3112],[39.9527,48.357],[39.9646,48.3741],[39.9332,48.435],[39.8968,48.4852],[39.9103,48.5095],[39.8877,48.5723],[39.8679,48.5896],[39.83,48.6069],[39.6889,48.6199],[39.7396,48.7333],[39.7714,48.7477],[39.8048,48.786],[39.8173,48.7884],[39.9198,48.7617],[40.0009,48.7687],[40.0453,48.7922],[40.0716,48.8139],[40.0899,48.8383],[40.0948,48.8683],[40.0861,48.8858],[40.0666,48.9022],[40.0397,48.9123],[39.9959,48.9134],[39.9525,48.8878],[39.9161,48.9048],[39.8635,48.9039],[39.7852,48.9171],[39.7549,48.9562],[39.7163,48.9776],[39.7196,49.0005],[39.7626,49.0008],[39.8384,49.0183],[39.9105,49.0157],[39.9521,49.032],[39.9628,49.0503],[39.9697,49.0906],[39.9849,49.1078],[40.0693,49.1507],[40.1223,49.1992],[40.1706,49.2238],[40.183,49.2453],[40.1839,49.278],[40.2008,49.3312],[40.1856,49.361],[40.1348,49.4014],[40.0813,49.463],[40.0774,49.4837],[40.0897,49.5044],[40.1443,49.5295],[40.1672,49.5552],[40.1705,49.5877],[40.1462,49.6087],[40.0287,49.6339],[39.9839,49.6335],[39.9442,49.6213],[39.871,49.5775],[39.8116,49.5689],[39.7473,49.6051],[39.6558,49.6315],[39.6369,49.657],[39.6102,49.7215],[39.5779,49.7475],[39.5101,49.7545],[39.4516,49.776],[39.3971,49.7706],[39.3281,49.7539],[39.2904,49.7642],[39.2752,49.778],[39.2219,49.8681],[39.1705,49.8988],[39.1413,49.8989],[39.0856,49.8821],[39.0288,49.8348],[38.9535,49.8311],[38.8809,49.8854],[38.7666,49.91],[38.7168,49.9333],[38.7047,49.9732],[38.685,49.9887],[38.654,49.9912],[38.6124,49.979],[38.5627,49.9832],[38.5014,49.976],[38.4356,49.9968],[38.3872,50.0013],[38.3465,50.0667],[38.3208,50.0839],[38.2878,50.089],[38.1937,50.0896],[38.1494,50.082],[38.1328,50.0657],[38.123,50.0359],[38.1292,49.9837],[38.1259,49.9553],[38.1149,49.9503],[38.066,49.9555],[38.0256,49.9423],[37.983,49.9915],[37.944,50.0233],[37.8655,50.0618],[37.7586,50.0977],[37.6673,50.1887],[37.6312,50.2132],[37.6437,50.25],[37.6383,50.3011],[37.5868,50.3367],[37.5134,50.3596],[37.475,50.4343],[37.4354,50.4556],[37.4094,50.4586],[37.2987,50.4479],[37.2549,50.4341],[37.1775,50.3868],[37.0488,50.3629],[36.9771,50.369],[36.911,50.366],[36.834,50.349],[36.6538,50.2804],[36.6346,50.2678],[36.6057,50.2338],[36.595,50.2317],[36.5748,50.2349],[36.581,50.2672],[36.5745,50.2796],[36.5574,50.2909],[36.4233,50.3302],[36.3682,50.3303],[36.3184,50.305],[36.2986,50.3021],[36.2052,50.398],[36.177,50.4115],[36.1666,50.4282],[36.1094,50.448],[35.9353,50.457],[35.8326,50.45],[35.7935,50.4404],[35.752,50.4111],[35.7049,50.3986],[35.6719,50.3683],[35.6208,50.3806],[35.6086,50.3895],[35.5961,50.4387],[35.5783,50.4626],[35.5372,50.4848],[35.4765,50.4972],[35.4651,50.5104],[35.4203,50.625],[35.499,50.6495],[35.5114,50.6669],[35.5095,50.6766],[35.4873,50.6974],[35.4889,50.7394],[35.4804,50.7675],[35.4589,50.7916],[35.4207,50.8094],[35.4167,50.8447],[35.3839,50.8817],[35.3844,50.9177],[35.3784,50.9298],[35.3532,50.9514],[35.325,50.9607],[35.325,50.9714],[35.3759,50.9885],[35.3961,51.0178],[35.3935,51.0376],[35.368,51.0599],[35.3223,51.0729],[35.2772,51.0757],[35.1915,51.0667],[35.1804,51.0736],[35.1654,51.0984],[35.1321,51.2064],[35.1124,51.2244],[35.075,51.2375],[35.0063,51.2306],[34.9705,51.2417],[34.9416,51.2411],[34.8043,51.2005],[34.7446,51.1919],[34.6809,51.195],[34.6536,51.2434],[34.6145,51.2607],[34.5708,51.2633],[34.5173,51.2574],[34.3786,51.2835],[34.326,51.2772],[34.2741,51.255],[34.3154,51.283],[34.3478,51.3231],[34.3514,51.3389],[34.3428,51.3726],[34.3259,51.39],[34.311,51.3945],[34.2687,51.3882],[34.243,51.3948],[34.2624,51.4231],[34.2557,51.4535],[34.2689,51.4894],[34.2652,51.5225],[34.24,51.5596],[34.1933,51.5946],[34.1852,51.6232],[34.1741,51.6379],[34.1376,51.653],[34.303,51.6791],[34.3561,51.6786],[34.3994,51.6857],[34.4552,51.7275],[34.4529,51.7881],[34.426,51.8281],[34.3783,51.8607],[34.3188,51.8964],[34.2695,51.9082],[34.1927,51.9638],[34.1479,51.9784],[34.1446,51.9957],[34.1105,52.0388],[34.1062,52.0533],[34.1015,52.101],[34.1136,52.1168],[34.1175,52.14],[34.095,52.1825],[34.0545,52.2161],[33.9887,52.2444],[33.9366,52.3016],[33.8747,52.3304],[33.84,52.3703],[33.7938,52.3855],[33.7351,52.388],[33.6693,52.3803],[33.5815,52.3552],[33.5425,52.3337],[33.5358,52.3563],[33.5169,52.3731],[33.4909,52.384],[33.4596,52.3815],[33.4242,52.3672],[33.3684,52.3839],[33.1743,52.3938],[33.1406,52.3818],[33.1028,52.3554],[33.0586,52.3356],[33.0007,52.3237],[32.904,52.2706],[32.8434,52.2893],[32.7361,52.2792],[32.5326,52.3431],[32.4819,52.3356],[32.4097,52.3521],[32.3445,52.348],[32.3294,52.3442],[32.3108,52.3281],[32.2967,52.2938],[32.2971,52.2799],[32.3181,52.25],[32.2864,52.2275],[32.2752,52.2047],[32.264,52.1487],[32.2422,52.1198],[32.2099,52.1039],[32.0843,52.0673],[32.0127,52.0766],[31.9763,52.0745],[31.9314,52.0626],[31.9251,52.0918],[31.9121,52.1061],[31.8676,52.1263],[31.8347,52.1305],[31.653,52.124],[31.4747,52.1448],[31.3828,52.1445],[31.2876,52.1224],[31.2494,52.0976],[31.2251,52.0688],[31.181,52.0915],[31.1403,52.1034],[30.9567,52.1016],[30.9209,52.0954],[30.902,52.0879],[30.8765,52.0662],[30.8785,52.0463],[30.8685,52.0189],[30.8464,52.0048],[30.8355,51.9832],[30.7735,51.959],[30.7595,51.9415],[30.7614,51.9261],[30.7112,51.9172],[30.6941,51.891],[30.6262,51.8349],[30.6184,51.8181],[30.6256,51.8005],[30.5773,51.7707],[30.5746,51.7611],[30.5914,51.7406],[30.5893,51.7294],[30.5575,51.7257],[30.5323,51.7131],[30.5223,51.6585],[30.5096,51.6473],[30.5071,51.6358],[30.4753,51.6145],[30.4717,51.5963],[30.483,51.5791],[30.4815,51.5541],[30.4996,51.5369],[30.5215,51.5275],[30.5234,51.5107],[30.5414,51.4976],[30.5518,51.4685],[30.541,51.4419],[30.5455,51.422],[30.5536,51.4109],[30.5827,51.3997],[30.593,51.3741],[30.5928,51.3451],[30.5427,51.3173],[30.5354,51.2978],[30.5215,51.2831],[30.4906,51.2867],[30.4725,51.3026],[30.4386,51.3179],[30.387,51.3236],[30.3642,51.342],[30.3722,51.3645],[30.3722,51.3895],[30.3581,51.4151],[30.3264,51.4338],[30.283,51.4471],[30.2312,51.4881],[30.2031,51.5011],[30.1601,51.5104],[30.0075,51.509],[29.92,51.4867],[29.875,51.4908],[29.8485,51.4812],[29.8232,51.4579],[29.7634,51.4642],[29.7376,51.4971],[29.7075,51.5133],[29.6669,51.5198],[29.631,51.5175],[29.5889,51.5056],[29.5418,51.472],[29.475,51.4566],[29.4429,51.415],[29.3896,51.4218],[29.327,51.3985],[29.3055,51.4421],[29.2669,51.4711],[29.2736,51.4954],[29.2661,51.53],[29.2205,51.5792],[29.1972,51.6176],[29.1711,51.6385],[29.147,51.6479],[29.0941,51.6574],[29.0484,51.656],[29.0132,51.6454],[28.9842,51.6254],[28.9558,51.5924],[28.8544,51.5853],[28.8051,51.5695],[28.7383,51.5283],[28.7126,51.4946],[28.7064,51.4696],[28.6739,51.4679],[28.6529,51.55],[28.6347,51.5726],[28.5871,51.5865],[28.4603,51.5986],[28.4109,51.5884],[28.3608,51.5672],[28.3431,51.5925],[28.294,51.6174],[28.2874,51.6467],[28.2779,51.6583],[28.2497,51.6753],[28.2128,51.6789],[28.1686,51.6695],[28.1369,51.653],[28.0793,51.5924],[28.0631,51.5846],[27.9707,51.5861],[27.9076,51.6263],[27.8614,51.6419],[27.8015,51.6326],[27.7734,51.6137],[27.7604,51.5969],[27.7506,51.5702],[27.7514,51.5264],[27.7144,51.4948],[27.7477,51.5632],[27.7458,51.5777],[27.7257,51.6067],[27.6983,51.6183],[27.6297,51.6227],[27.5134,51.6501],[27.4567,51.6474],[27.3973,51.6182],[27.3138,51.6222],[27.3207,51.6482],[27.3131,51.6666],[27.2879,51.6773],[27.2268,51.6812],[27.2276,51.7293],[27.2201,51.7536],[27.1998,51.7704],[27.1605,51.7831],[27.0232,51.7915],[26.9169,51.7703],[26.8674,51.7754],[26.6671,51.8283],[26.4621,51.8323],[26.4634,51.8473],[26.452,51.865],[26.4096,51.8775],[26.1853,51.8834],[26.1099,51.9207],[26.0601,51.9311],[25.9845,51.9305],[25.776,51.955],[25.6795,51.945],[25.3581,51.9484],[25.1947,51.9758],[25.1367,51.9759],[25.0722,51.9636],[24.9886,51.9364],[24.7192,51.9094],[24.6363,51.919],[24.3754,51.9052],[24.3381,51.8938],[24.2752,51.8426],[24.2536,51.8141],[24.2318,51.7541],[24.213,51.7377],[24.1016,51.6898],[23.9616,51.6113],[23.9012,51.6448],[23.7508,51.6714],[23.7152,51.6709],[23.6077,51.6526],[23.575,51.6367],[23.5566,51.6183],[23.5511,51.6071],[23.5526,51.5877],[23.5812,51.5391],[23.5639,51.5232],[23.5666,51.5035],[23.5798,51.4814],[23.6063,51.4682],[23.6044,51.4561],[23.6129,51.4389],[23.6441,51.4102],[23.6348,51.3846],[23.5922,51.3459],[23.5863,51.3209],[23.5928,51.2997],[23.6154,51.2808],[23.6543,51.2726],[23.7035,51.2051],[23.7319,51.182],[23.8179,51.1391],[23.8117,51.119],[23.8627,51.0552],[23.8733,50.995],[23.914,50.9739],[23.923,50.9464],[23.9427,50.9237],[24.0179,50.8783],[24.0638,50.8614],[24.0148,50.8653],[23.9669,50.8576],[23.931,50.8363],[23.915,50.8064],[23.9251,50.7729],[23.9718,50.7472],[23.976,50.7298],[23.9901,50.7145],[24.033,50.694],[24.0414,50.663],[24.0611,50.6319],[24.0436,50.6096],[24.0432,50.6008],[24.0583,50.5424],[23.976,50.5084],[23.9659,50.4847],[23.9658,50.4531],[23.9491,50.4254],[23.92,50.4177],[23.7347,50.4151],[23.6764,50.4008],[23.6524,50.3874],[23.611,50.3295],[23.5366,50.2777],[23.4054,50.2117],[23.1769,50.0521],[23.1463,50.0224],[23.0703,49.9751],[22.9604,49.8715],[22.9211,49.8454],[22.8976,49.8078],[22.8558,49.7867],[22.7929,49.7136],[22.75,49.7008],[22.7295,49.6871],[22.7044,49.6464],[22.6274,49.5778],[22.6026,49.5391],[22.6015,49.5202],[22.626,49.4728],[22.6393,49.4124],[22.68,49.3747],[22.6961,49.2764],[22.664,49.2043],[22.6475,49.1809],[22.6412,49.1564],[22.6663,49.133],[22.7062,49.1323],[22.7535,49.0987],[22.8101,49.0755],[22.8026,49.0507],[22.7601,49.0715],[22.6579,49.0691],[22.593,49.1072],[22.5442,49.1102],[22.5002,49.08],[22.479,49.009],[22.4411,49.0017],[22.4101,48.9801],[22.3776,48.9229],[22.373,48.8983],[22.3447,48.8808],[22.3237,48.8533],[22.3245,48.7968],[22.2903,48.7605],[22.2878,48.7237],[22.2747,48.6953],[22.2099,48.6668],[22.1861,48.638],[22.1189,48.5999],[22.098,48.5714],[22.0966,48.5443],[22.1071,48.5082],[22.0931,48.4771],[22.0947,48.3955],[22.1134,48.3812],[22.1536,48.3757],[22.2073,48.3906],[22.2222,48.3893]],[[33.5955,46.0827],[33.5947,46.1034],[33.5782,46.1177],[33.5864,46.1227],[33.6069,46.095],[33.5955,46.0827]],[[32.0716,46.2101],[31.8079,46.2549],[31.8957,46.2538],[31.9202,46.2674],[31.9998,46.2337],[32.0424,46.2351],[32.0716,46.2101]],[[31.5684,46.5888],[31.6023,46.5957],[31.6267,46.6233],[31.6685,46.6258],[31.7657,46.6008],[31.8225,46.5966],[31.8662,46.6027],[31.9222,46.6263],[31.9467,46.662],[31.9935,46.6112],[32.0223,46.5993],[32.0839,46.5898],[32.0942,46.5634],[32.126,46.5379],[32.0345,46.5338],[31.9555,46.5456],[31.8692,46.5463],[31.8107,46.5703],[31.7676,46.5801],[31.59,46.5727],[31.5684,46.5888]],[[32.1516,46.5339],[32.1643,46.5363],[32.1923,46.5567],[32.2424,46.5692],[32.3285,46.5357],[32.3832,46.5393],[32.3701,46.5231],[32.3769,46.5012],[32.3204,46.4916],[32.2917,46.4961],[32.2302,46.5217],[32.1516,46.5339]],[[30.0273,45.7979],[29.993,45.7757],[29.9988,45.8139],[30.0273,45.7979]],[[29.8973,45.7136],[29.8799,45.703],[29.8367,45.7212],[29.883,45.7258],[29.8973,45.7136]],[[29.698,45.6044],[29.6512,45.5734],[29.6321,45.5753],[29.6398,45.677],[29.6504,45.6827],[29.6884,45.6563],[29.6963,45.6372],[29.698,45.6044]]]}}